ONEWEB-0545             
1 54647U 22166F   25202.85121437  .00000016  00000+0  82077-5 0  9990
2 54647  87.9271 309.8880 0002278 112.5411 247.5964 13.21826096127861
ONEWEB-0580             
1 54648U 22166G   25202.82439516 -.00000091  00000+0 -25157-3 0  9997
2 54648  87.9273 309.8910 0001950 111.4011 248.7331 13.21824614127908
ONEWEB-0582             
1 54649U 22166H   25202.86696957  .00000124  00000+0  26916-3 0  9995
2 54649  87.9264 309.8808 0001965 116.1399 243.9937 13.21825863127885
ONEWEB-0583             
1 54650U 22166J   25202.80232222  .00000009  00000+0 -10180-4 0  9992
2 54650  87.9273 309.9145 0002050 103.0159 257.1204 13.21824622127883
ONEWEB-0584             
1 54651U 22166K   25202.82282153 -.00000054  00000+0 -16328-3 0  9993
2 54651  87.9273 309.8946 0001861 112.5889 247.5442 13.21825626127877
ONEWEB-0585             
1 54652U 22166L   25202.84805485  .00000022  00000+0  21189-4 0  9990
2 54652  87.9272 309.8759 0001892  96.0749 264.0601 13.21827444127886
ONEWEB-0586             
1 54653U 22166M   25202.86067086  .00000061  00000+0  11722-3 0  9994
2 54653  87.9276 309.8968 0002002 105.4940 254.6415 13.21825182127880
ONEWEB-0587             
1 54654U 22166N   25202.79443430  .00000021  00000+0  19181-4 0  9992
2 54654  87.9273 309.8583 0001918  93.8622 266.2731 13.21827227128033
